STARLINK-2099           
1 47379U 21005AG  26068.22596165  .00000356  00000+0  24152-4 0  9997
2 47379  53.1612  15.6956 0001349  92.1215 267.9941 15.30188698283650
ION SCV-004             
1 50993U 22002K   26068.68892644  .00006538  00000+0  23198-3 0  9998
2 50993  97.2961 128.2294 0007216   1.6783 358.4480 15.29369331230088
